     3.02           N: GNSS NAV DATA    M: MIXED NAV DATA   RINEX VERSION / TYPE
Alloy 6.23          Receiver Operator   20241228 000000 UTC PGM / RUN BY / DATE
GPSA    .2887D-07   .2980D-07  -.1192D-06   .0000D+00       IONOSPHERIC CORR
GPSB    .1556D+06  -.2130D+06  -.6554D+05   .5243D+06       IONOSPHERIC CORR
GAL     .1623D+03  -.7266D+00   .9155D-03   .0000D+00       IONOSPHERIC CORR
QZSA    .2515D-07  -.5215D-07  -.3576D-06  -.5960D-07       IONOSPHERIC CORR
QZSB    .1188D+06  -.1475D+06   .1966D+06  -.4850D+07       IONOSPHERIC CORR
BDSA    .2235D-07   .3576D-06  -.2384D-05   .3517D-05       IONOSPHERIC CORR
BDSB    .1946D+06  -.6390D+06   .9175D+06   .6554D+05       IONOSPHERIC CORR
GPUT  -.1862645149D-08 -.621724894D-14  61440 2347          TIME SYSTEM CORR
GLUT   .7916241884D-08  .000000000D+00 517518 2346          TIME SYSTEM CORR
GAUT   .2793967724D-08 -.888178420D-15 432000 2346          TIME SYSTEM CORR
BDUT  -.3725290298D-08 -.195399252D-13     14  990          TIME SYSTEM CORR
QZUT   .1490116119D-07  .000000000D+00  94208 2347          TIME SYSTEM CORR
GPGA   .6082700565D-08  .128785871D-13 518400 2346          TIME SYSTEM CORR
    18    18  2441     7                                    LEAP SECONDS
                                                            END OF HEADER
E10 2024 12 28 07 30 00 -.679382297676D-03 -.252953213931D-11  .000000000000D+00
      .200000000000D+02 -.469687500000D+02  .272225625004D-08  .273905456421D+01
     -.241212546825D-05  .128394225612D-03 -.132620334625D-05  .544060936165D+04
      .545400000000D+06  .391155481339D-07 -.165523590128D+01 -.465661287308D-07
      .999480351637D+00  .389375000000D+03 -.214042832817D+01 -.573488173799D-08
     -.114290474943D-10  .516000000000D+03  .234600000000D+04
      .312000000000D+01  .000000000000D+00 -.372529029846D-08 -.232830643654D-08
      .546064000000D+06
E 5 2024 12 28 07 30 00  .481410697103D-02  .322586402035D-11  .000000000000D+00
      .200000000000D+02 -.640625000000D+01  .325049253892D-08  .946677739671D+00
     -.244006514549D-06  .265168491751D-04  .870414078236D-05  .544060144615D+04
      .545400000000D+06  .130385160446D-07  .435528028759D+00 -.614672899246D-07
      .963389417996D+00  .151625000000D+03  .265582170989D+01 -.542558314017D-08
      .557880380814D-09  .516000000000D+03  .234600000000D+04
      .312000000000D+01  .000000000000D+00 -.465661287308D-09  .698491930962D-09
      .546064000000D+06
E36 2024 12 28 07 30 00 -.331068469677D-03 -.528643795406D-11  .000000000000D+00
      .200000000000D+02 -.704062500000D+02  .279761653196D-08  .471874924788D+00
     -.320933759212D-05  .363263767213D-03 -.119209289551D-05  .544060311699D+04
      .545400000000D+06 -.130385160446D-07 -.165334592815D+01 -.428408384323D-07
      .999641514007D+00  .384812500000D+03 -.105311045005D+01 -.572202405956D-08
     -.378587198248D-10  .513000000000D+03  .234600000000D+04
      .312000000000D+01  .000000000000D+00  .139698386192D-08  .256113708019D-08
      .546085000000D+06
E 5 2024 12 28 07 30 00  .481410697103D-02  .322586402035D-11  .000000000000D+00
      .200000000000D+02 -.640625000000D+01  .325049253892D-08  .946677739671D+00
     -.244006514549D-06  .265168491751D-04  .870414078236D-05  .544060144615D+04
      .545400000000D+06  .130385160446D-07  .435528028759D+00 -.614672899246D-07
      .963389417996D+00  .151625000000D+03  .265582170989D+01 -.542558314017D-08
      .557880380814D-09  .513000000000D+03  .234600000000D+04
      .312000000000D+01  .000000000000D+00 -.465661287308D-09  .698491930962D-09
      .546085000000D+06
E10 2024 12 28 07 30 00 -.679382297676D-03 -.252953213931D-11  .000000000000D+00
      .200000000000D+02 -.469687500000D+02  .272225625004D-08  .273905456421D+01
     -.241212546825D-05  .128394225612D-03 -.132620334625D-05  .544060936165D+04
      .545400000000D+06  .391155481339D-07 -.165523590128D+01 -.465661287308D-07
      .999480351637D+00  .389375000000D+03 -.214042832817D+01 -.573488173799D-08
     -.114290474943D-10  .513000000000D+03  .234600000000D+04
      .312000000000D+01  .000000000000D+00 -.372529029846D-08 -.232830643654D-08
      .546085000000D+06
E 2 2024 12 28 07 30 00  .185687502380D-03  .285638179776D-11  .000000000000D+00
      .200000000000D+02  .838750000000D+02  .271654172630D-08  .826209127612D-01
      .399537384510D-05  .495403190143D-03  .105630606413D-04  .544062635231D+04
      .545400000000D+06 -.614672899246D-07  .253911981491D+01  .931322574615D-08
      .964890654289D+00  .116906250000D+03  .641273371633D+00 -.511771317330D-08
     -.542165440510D-09  .513000000000D+03  .234600000000D+04
      .312000000000D+01  .000000000000D+00 -.558793544769D-08 -.582076609135D-08
      .546085000000D+06
E25 2024 12 28 07 30 00  .127014354803D-04  .369482222595D-12  .000000000000D+00
      .200000000000D+02  .783437500000D+02  .277475843697D-08  .124793557321D+01
      .366382300854D-05  .203894334845D-03  .106934458017D-04  .544061894608D+04
      .545400000000D+06  .372529029846D-07  .253596299423D+01 -.912696123123D-07
      .964496011656D+00  .117312500000D+03  .264552875141D+00 -.516414367874D-08
     -.582524264474D-09  .513000000000D+03  .234600000000D+04
      .312000000000D+01  .000000000000D+00 -.465661287308D-09  .232830643654D-09
      .546085000000D+06
E12 2024 12 28 07 30 00 -.136035442119D-02 -.171951342054D-10  .000000000000D+00
      .200000000000D+02 -.500312500000D+02  .276618665135D-08  .140576019048D+01
     -.258907675743D-05  .369578017853D-03 -.169128179550D-05  .544061274910D+04
      .545400000000D+06  .577419996262D-07 -.165266112450D+01  .000000000000D+00
      .996552224549D+00  .392750000000D+03 -.442206239551D+00 -.575881130618D-08
      .500020827875D-11  .513000000000D+03  .234600000000D+04
      .312000000000D+01  .000000000000D+00 -.144354999065D-07 -.139698386192D-07
      .546085000000D+06
E36 2024 12 28 07 30 00 -.331070157699D-03 -.528643795406D-11  .000000000000D+00
      .200000000000D+02 -.704062500000D+02  .279761653196D-08  .471874924788D+00
     -.320933759212D-05  .363263767213D-03 -.119209289551D-05  .544060311699D+04
      .545400000000D+06 -.130385160446D-07 -.165334592815D+01 -.428408384323D-07
      .999641514007D+00  .384812500000D+03 -.105311045005D+01 -.572202405956D-08
     -.378587198248D-10  .258000000000D+03  .234600000000D+04
      .312000000000D+01  .000000000000D+00  .139698386192D-08  .000000000000D+00
      .546120000000D+06
E12 2024 12 28 07 30 00 -.136035546893D-02 -.171951342054D-10  .000000000000D+00
      .200000000000D+02 -.500312500000D+02  .276618665135D-08  .140576019048D+01
     -.258907675743D-05  .369578017853D-03 -.169128179550D-05  .544061274910D+04
      .545400000000D+06  .577419996262D-07 -.165266112450D+01  .000000000000D+00
      .996552224549D+00  .392750000000D+03 -.442206239551D+00 -.575881130618D-08
      .500020827875D-11  .258000000000D+03  .234600000000D+04
      .312000000000D+01  .000000000000D+00 -.144354999065D-07  .000000000000D+00
      .546120000000D+06
E25 2024 12 28 07 30 00  .127002131194D-04  .369482222595D-12  .000000000000D+00
      .200000000000D+02  .783437500000D+02  .277475843697D-08  .124793557321D+01
      .366382300854D-05  .203894334845D-03  .106934458017D-04  .544061894608D+04
      .545400000000D+06  .372529029846D-07  .253596299423D+01 -.912696123123D-07
      .964496011656D+00  .117312500000D+03  .264552875141D+00 -.516414367874D-08
     -.582524264474D-09  .258000000000D+03  .234600000000D+04
      .312000000000D+01  .000000000000D+00 -.465661287308D-09  .000000000000D+00
      .546120000000D+06
E 2 2024 12 28 07 30 00  .185687502380D-03  .285638179776D-11  .000000000000D+00
      .200000000000D+02  .838750000000D+02  .271654172630D-08  .826209127612D-01
      .399537384510D-05  .495403190143D-03  .105630606413D-04  .544062635231D+04
      .545400000000D+06 -.614672899246D-07  .253911981491D+01  .931322574615D-08
      .964890654289D+00  .116906250000D+03  .641273371633D+00 -.511771317330D-08
     -.542165440510D-09  .258000000000D+03  .234600000000D+04
      .312000000000D+01  .000000000000D+00 -.558793544769D-08  .000000000000D+00
      .546120000000D+06
E10 2024 12 28 07 30 00 -.679383869283D-03 -.252953213931D-11  .000000000000D+00
      .200000000000D+02 -.469687500000D+02  .272225625004D-08  .273905456421D+01
     -.241212546825D-05  .128394225612D-03 -.132620334625D-05  .544060936165D+04
      .545400000000D+06  .391155481339D-07 -.165523590128D+01 -.465661287308D-07
      .999480351637D+00  .389375000000D+03 -.214042832817D+01 -.573488173799D-08
     -.114290474943D-10  .258000000000D+03  .234600000000D+04
      .312000000000D+01  .000000000000D+00 -.372529029846D-08  .000000000000D+00
      .546120000000D+06
E 5 2024 12 28 07 30 00  .481410563225D-02  .322586402035D-11  .000000000000D+00
      .200000000000D+02 -.640625000000D+01  .325049253892D-08  .946677739671D+00
     -.244006514549D-06  .265168491751D-04  .870414078236D-05  .544060144615D+04
      .545400000000D+06  .130385160446D-07  .435528028759D+00 -.614672899246D-07
      .963389417996D+00  .151625000000D+03  .265582170989D+01 -.542558314017D-08
      .557880380814D-09  .258000000000D+03  .234600000000D+04
      .312000000000D+01  .000000000000D+00 -.465661287308D-09  .000000000000D+00
      .546120000000D+06
E11 2024 12 28 07 30 00  .933971023187D-05 -.217269757741D-09 -.173472347598D-17
      .200000000000D+02 -.523750000000D+02  .279368779688D-08  .686810516529D-01
     -.250339508057D-05  .245025614277D-03 -.152364373207D-05  .544060806847D+04
      .545400000000D+06 -.186264514923D-08 -.165266522213D+01 -.409781932831D-07
      .996540298841D+00  .393750000000D+03  .103692000651D+00 -.574595362775D-08
     -.353586156854D-10  .516000000000D+03  .234600000000D+04
      .312000000000D+01  .000000000000D+00 -.172294676304D-07 -.176951289177D-07
      .546274000000D+06
